{
  "type": "FeatureCollection",
  "features": [
    {
      "type": "Feature",
      "properties": {
        "norad_id": 38512,
        "name": "FENGYUN 1C DEB",
        "group": "fengyun-1c-debris",
        "lat": -23.809633132551063,
        "lon": -132.95135476185436,
        "alt_km": 1126.513972663658,
        "timestamp": "2025-12-06T18:50:10.458537+00:00",
        "meta_object_name": "FENGYUN 1C DEB",
        "meta_object_id": "1999-025ESX",
        "meta_epoch": "2025-11-24T15:04:33.900960",
        "meta_mean_motion": 13.73922037,
        "meta_eccentricity": 0.02258852,
        "meta_inclination": 98.3776,
        "meta_ra_of_asc_node": 212.6517,
        "meta_arg_of_pericenter": 154.1881,
        "meta_mean_anomaly": 207.075,
        "meta_ephemeris_type": 0,
        "meta_classification_type": "U",
        "meta_norad_cat_id": 38512,
        "meta_element_set_no": 999,
        "meta_rev_at_epoch": 59321,
        "meta_bstar": 0.0011065478,
        "meta_mean_motion_dot": 1.212e-05,
        "meta_mean_motion_ddot": 0,
        "tle_line1": "1 38512U 99025ESX 25328.62817015  .00001212  00000+0  11065-2 0  9994",
        "tle_line2": "2 38512  98.3776 212.6517 0225885 154.1881 207.0750 13.73922037593211"
      },
      "geometry": {
        "type": "Point",
        "coordinates": [
          -132.95135476185436,
          -23.809633132551063
        ]
      }
    },
    {
      "type": "Feature",
      "properties": {
        "norad_id": 38514,
        "name": "FENGYUN 1C DEB",
        "group": "fengyun-1c-debris",
        "lat": -66.37232268864867,
        "lon": 172.0400186582529,
        "alt_km": 1003.9158820180864,
        "timestamp": "2025-12-06T18:50:10.458547+00:00",
        "meta_object_name": "FENGYUN 1C DEB",
        "meta_object_id": "1999-025ESZ",
        "meta_epoch": "2025-12-05T21:18:35.296992",
        "meta_mean_motion": 14.15398664,
        "meta_eccentricity": 0.02716454,
        "meta_inclination": 98.0566,
        "meta_ra_of_asc_node": 10.1192,
        "meta_arg_of_pericenter": 33.8686,
        "meta_mean_anomaly": 327.9511,
        "meta_ephemeris_type": 0,
        "meta_classification_type": "U",
        "meta_norad_cat_id": 38514,
        "meta_element_set_no": 999,
        "meta_rev_at_epoch": 87899,
        "meta_bstar": 0.0084481193,
        "meta_mean_motion_dot": 0.00023594,
        "meta_mean_motion_ddot": 0,
        "tle_line1": "1 38514U 99025ESZ 25339.88790853  .00023594  00000+0  84481-2 0  9995",
        "tle_line2": "2 38514  98.0566  10.1192 0271645  33.8686 327.9511 14.15398664878996"
      },
      "geometry": {
        "type": "Point",
        "coordinates": [
          172.0400186582529,
          -66.37232268864867
        ]
      }
    },
    {
      "type": "Feature",
      "properties": {
        "norad_id": 38516,
        "name": "FENGYUN 1C DEB",
        "group": "fengyun-1c-debris",
        "lat": -8.26053103774197,
        "lon": 143.6020069744808,
        "alt_km": 725.9064389553769,
        "timestamp": "2025-12-06T18:50:10.458557+00:00",
        "meta_object_name": "FENGYUN 1C DEB",
        "meta_object_id": "1999-025ETB",
        "meta_epoch": "2025-12-03T04:33:56.311776",
        "meta_mean_motion": 14.34038032,
        "meta_eccentricity": 0.01111458,
        "meta_inclination": 98.4411,
        "meta_ra_of_asc_node": 321.328,
        "meta_arg_of_pericenter": 153.504,
        "meta_mean_anomaly": 207.1887,
        "meta_ephemeris_type": 0,
        "meta_classification_type": "U",
        "meta_norad_cat_id": 38516,
        "meta_element_set_no": 999,
        "meta_rev_at_epoch": 84736,
        "meta_bstar": 0.00014402251,
        "meta_mean_motion_dot": 3.87e-06,
        "meta_mean_motion_ddot": 0,
        "tle_line1": "1 38516U 99025ETB 25337.19023509  .00000387  00000+0  14402-3 0  9998",
        "tle_line2": "2 38516  98.4411 321.3280 0111145 153.5040 207.1887 14.34038032847361"
      },
      "geometry": {
        "type": "Point",
        "coordinates": [
          143.6020069744808,
          -8.26053103774197
        ]
      }
    },
    {
      "type": "Feature",
      "properties": {
        "norad_id": 38717,
        "name": "FENGYUN 1C DEB",
        "group": "fengyun-1c-debris",
        "lat": -12.290632566603835,
        "lon": -2.191225594134769,
        "alt_km": 792.3480020867664,
        "timestamp": "2025-12-06T18:50:10.458567+00:00",
        "meta_object_name": "FENGYUN 1C DEB",
        "meta_object_id": "1999-025ETJ",
        "meta_epoch": "2025-12-01T00:20:32.745696",
        "meta_mean_motion": 14.19799614,
        "meta_eccentricity": 0.00572573,
        "meta_inclination": 99.1602,
        "meta_ra_of_asc_node": 349.8258,
        "meta_arg_of_pericenter": 27.4617,
        "meta_mean_anomaly": 1.3685,
        "meta_ephemeris_type": 0,
        "meta_classification_type": "U",
        "meta_norad_cat_id": 38717,
        "meta_element_set_no": 999,
        "meta_rev_at_epoch": 58260,
        "meta_bstar": 0.0018132413,
        "meta_mean_motion_dot": 3.86e-05,
        "meta_mean_motion_ddot": 0,
        "tle_line1": "1 38717U 99025ETJ 25335.01426789  .00003860  00000+0  18132-2 0  9999",
        "tle_line2": "2 38717  99.1602 349.8258 0057257  27.4617   1.3685 14.19799614582602"
      },
      "geometry": {
        "type": "Point",
        "coordinates": [
          -2.191225594134769,
          -12.290632566603835
        ]
      }
    },
    {
      "type": "Feature",
      "properties": {
        "norad_id": 38722,
        "name": "FENGYUN 1C DEB",
        "group": "fengyun-1c-debris",
        "lat": -77.20327505899061,
        "lon": 124.89652712018986,
        "alt_km": 808.1184140907908,
        "timestamp": "2025-12-06T18:50:10.458577+00:00",
        "meta_object_name": "FENGYUN 1C DEB",
        "meta_object_id": "1999-025ETP",
        "meta_epoch": "2025-12-05T11:55:33.244320",
        "meta_mean_motion": 14.58069916,
        "meta_eccentricity": 0.01482923,
        "meta_inclination": 99.355,
        "meta_ra_of_asc_node": 76.9145,
        "meta_arg_of_pericenter": 116.7049,
        "meta_mean_anomaly": 244.9414,
        "meta_ephemeris_type": 0,
        "meta_classification_type": "U",
        "meta_norad_cat_id": 38722,
        "meta_element_set_no": 999,
        "meta_rev_at_epoch": 70358,
        "meta_bstar": 0.0055080118,
        "meta_mean_motion_dot": 0.00029555,
        "meta_mean_motion_ddot": 0,
        "tle_line1": "1 38722U 99025ETP 25339.49691255  .00029555  00000+0  55080-2 0  9995",
        "tle_line2": "2 38722  99.3550  76.9145 0148292 116.7049 244.9414 14.58069916703581"
      },
      "geometry": {
        "type": "Point",
        "coordinates": [
          124.89652712018986,
          -77.20327505899061
        ]
      }
    },
    {
      "type": "Feature",
      "properties": {
        "norad_id": 38724,
        "name": "FENGYUN 1C DEB",
        "group": "fengyun-1c-debris",
        "lat": 43.98249866429268,
        "lon": -18.674071733453193,
        "alt_km": 772.6726483660941,
        "timestamp": "2025-12-06T18:50:10.458587+00:00",
        "meta_object_name": "FENGYUN 1C DEB",
        "meta_object_id": "1999-025ETR",
        "meta_epoch": "2025-11-13T12:10:01.066656",
        "meta_mean_motion": 14.14277973,
        "meta_eccentricity": 0.012547,
        "meta_inclination": 98.7406,
        "meta_ra_of_asc_node": 327.0705,
        "meta_arg_of_pericenter": 154.7752,
        "meta_mean_anomaly": 205.962,
        "meta_ephemeris_type": 0,
        "meta_classification_type": "U",
        "meta_norad_cat_id": 38724,
        "meta_element_set_no": 999,
        "meta_rev_at_epoch": 56211,
        "meta_bstar": 0.0084973,
        "meta_mean_motion_dot": 0.00017498,
        "meta_mean_motion_ddot": 0,
        "tle_line1": "1 38724U 99025ETR 25317.50695679  .00017498  00000+0  84973-2 0  9995",
        "tle_line2": "2 38724  98.7406 327.0705 0125470 154.7752 205.9620 14.14277973562118"
      },
      "geometry": {
        "type": "Point",
        "coordinates": [
          -18.674071733453193,
          43.98249866429268
        ]
      }
    },
    {
      "type": "Feature",
      "properties": {
        "norad_id": 38725,
        "name": "FENGYUN 1C DEB",
        "group": "fengyun-1c-debris",
        "lat": 60.67838406948529,
        "lon": -58.08375201186285,
        "alt_km": 766.2086845862877,
        "timestamp": "2025-12-06T18:50:10.458597+00:00",
        "meta_object_name": "FENGYUN 1C DEB",
        "meta_object_id": "1999-025ETS",
        "meta_epoch": "2025-12-04T14:41:13.471008",
        "meta_mean_motion": 14.4259765,
        "meta_eccentricity": 0.0034622,
        "meta_inclination": 98.872,
        "meta_ra_of_asc_node": 103.5102,
        "meta_arg_of_pericenter": 280.4339,
        "meta_mean_anomaly": 79.2949,
        "meta_ephemeris_type": 0,
        "meta_classification_type": "U",
        "meta_norad_cat_id": 38725,
        "meta_element_set_no": 999,
        "meta_rev_at_epoch": 73235,
        "meta_bstar": 0.0064338,
        "meta_mean_motion_dot": 0.00021541,
        "meta_mean_motion_ddot": 0,
        "tle_line1": "1 38725U 99025ETS 25338.61196147  .00021541  00000+0  64338-2 0  9994",
        "tle_line2": "2 38725  98.8720 103.5102 0034622 280.4339  79.2949 14.42597650732352"
      },
      "geometry": {
        "type": "Point",
        "coordinates": [
          -58.08375201186285,
          60.67838406948529
        ]
      }
    }
  ]
}